[{"OBJECT_NAME":"STARLINK-36744","OBJECT_ID":"2026-039B","EPOCH":"2026-03-06T06:00:02.000160","MEAN_MOTION":15.94485347,"ECCENTRICITY":0.00015228,"INCLINATION":42.9975,"RA_OF_ASC_NODE":76.2356,"ARG_OF_PERICENTER":269.8627,"MEAN_ANOMALY":235.7357,"EPHEMERIS_TYPE":0,"CLASSIFICATION_TYPE":"U","NORAD_CAT_ID":67987,"ELEMENT_SET_NO":999,"REV_AT_EPOCH":232,"BSTAR":-0.003887554,"MEAN_MOTION_DOT":-0.01519678,"MEAN_MOTION_DDOT":0.00066599909},{"OBJECT_NAME":"STARLINK-36734","OBJECT_ID":"2026-039C","EPOCH":"2026-03-06T06:00:02.000160","MEAN_MOTION":15.9463342,"ECCENTRICITY":0.00014273,"INCLINATION":42.9976,"RA_OF_ASC_NODE":76.23,"ARG_OF_PERICENTER":271.312,"MEAN_ANOMALY":236.4944,"EPHEMERIS_TYPE":0,"CLASSIFICATION_TYPE":"U","NORAD_CAT_ID":67988,"ELEMENT_SET_NO":999,"REV_AT_EPOCH":232,"BSTAR":-0.003842575,"MEAN_MOTION_DOT":-0.01514119,"MEAN_MOTION_DDOT":0.00066250943},{"OBJECT_NAME":"STARLINK-36957","OBJECT_ID":"2026-039D","EPOCH":"2026-03-06T06:00:02.000160","MEAN_MOTION":15.94776658,"ECCENTRICITY":0.00015405,"INCLINATION":42.9975,"RA_OF_ASC_NODE":76.2251,"ARG_OF_PERICENTER":273.9377,"MEAN_ANOMALY":235.6671,"EPHEMERIS_TYPE":0,"CLASSIFICATION_TYPE":"U","NORAD_CAT_ID":67989,"ELEMENT_SET_NO":999,"REV_AT_EPOCH":232,"BSTAR":-0.0038100092,"MEAN_MOTION_DOT":-0.01512925,"MEAN_MOTION_DDOT":0.00066250008},{"OBJECT_NAME":"STARLINK-36951","OBJECT_ID":"2026-039E","EPOCH":"2026-03-06T06:00:02.000160","MEAN_MOTION":15.94922713,"ECCENTRICITY":0.00015755,"INCLINATION":42.9975,"RA_OF_ASC_NODE":76.2197,"ARG_OF_PERICENTER":269.6056,"MEAN_ANOMALY":242.1515,"EPHEMERIS_TYPE":0,"CLASSIFICATION_TYPE":"U","NORAD_CAT_ID":67990,"ELEMENT_SET_NO":999,"REV_AT_EPOCH":232,"BSTAR":-0.0037729418,"MEAN_MOTION_DOT":-0.01510073,"MEAN_MOTION_DDOT":0.00066117726},{"OBJECT_NAME":"STARLINK-36941","OBJECT_ID":"2026-039F","EPOCH":"2026-03-06T06:00:02.000160","MEAN_MOTION":15.95054734,"ECCENTRICITY":0.00014837,"INCLINATION":42.9975,"RA_OF_ASC_NODE":76.2154,"ARG_OF_PERICENTER":269.3353,"MEAN_ANOMALY":244.0389,"EPHEMERIS_TYPE":0,"CLASSIFICATION_TYPE":"U","NORAD_CAT_ID":67991,"ELEMENT_SET_NO":999,"REV_AT_EPOCH":232,"BSTAR":-0.0037119206,"MEAN_MOTION_DOT":-0.01496409,"MEAN_MOTION_DDOT":0.0006510913},{"OBJECT_NAME":"STARLINK-36950","OBJECT_ID":"2026-039G","EPOCH":"2026-03-06T06:00:02.000160","MEAN_MOTION":15.95198076,"ECCENTRICITY":0.00015201,"INCLINATION":42.9976,"RA_OF_ASC_NODE":76.2104,"ARG_OF_PERICENTER":270.9681,"MEAN_ANOMALY":244.4672,"EPHEMERIS_TYPE":0,"CLASSIFICATION_TYPE":"U","NORAD_CAT_ID":67992,"ELEMENT_SET_NO":999,"REV_AT_EPOCH":232,"BSTAR":-0.0036775833,"MEAN_MOTION_DOT":-0.01494123,"MEAN_MOTION_DDOT":0.00065020369},{"OBJECT_NAME":"STARLINK-36975","OBJECT_ID":"2026-039H","EPOCH":"2026-03-06T06:00:02.000160","MEAN_MOTION":15.95336222,"ECCENTRICITY":0.00015225,"INCLINATION":42.9975,"RA_OF_ASC_NODE":76.2054,"ARG_OF_PERICENTER":273.4891,"MEAN_ANOMALY":243.8765,"EPHEMERIS_TYPE":0,"CLASSIFICATION_TYPE":"U","NORAD_CAT_ID":67993,"ELEMENT_SET_NO":999,"REV_AT_EPOCH":232,"BSTAR":-0.00363448,"MEAN_MOTION_DOT":-0.01487766,"MEAN_MOTION_DDOT":0.00064603077},{"OBJECT_NAME":"STARLINK-36993","OBJECT_ID":"2026-039J","EPOCH":"2026-03-06T06:00:02.000160","MEAN_MOTION":15.95477487,"ECCENTRICITY":0.00014899,"INCLINATION":42.9976,"RA_OF_ASC_NODE":76.2004,"ARG_OF_PERICENTER":268.8759,"MEAN_ANOMALY":250.6175,"EPHEMERIS_TYPE":0,"CLASSIFICATION_TYPE":"U","NORAD_CAT_ID":67994,"ELEMENT_SET_NO":999,"REV_AT_EPOCH":232,"BSTAR":-0.0035893141,"MEAN_MOTION_DOT":-0.01480647,"MEAN_MOTION_DDOT":0.00064128127},{"OBJECT_NAME":"STARLINK-36968","OBJECT_ID":"2026-039K","EPOCH":"2026-03-06T06:00:02.000160","MEAN_MOTION":15.95752504,"ECCENTRICITY":0.00015331,"INCLINATION":42.9976,"RA_OF_ASC_NODE":76.1863,"ARG_OF_PERICENTER":273.9313,"MEAN_ANOMALY":251.0122,"EPHEMERIS_TYPE":0,"CLASSIFICATION_TYPE":"U","NORAD_CAT_ID":67995,"ELEMENT_SET_NO":999,"REV_AT_EPOCH":232,"BSTAR":-0.0035623951,"MEAN_MOTION_DOT":-0.01491534,"MEAN_MOTION_DDOT":0.00065178409},{"OBJECT_NAME":"STARLINK-36979","OBJECT_ID":"2026-039L","EPOCH":"2026-03-06T06:00:02.000160","MEAN_MOTION":15.9561553,"ECCENTRICITY":0.00015227,"INCLINATION":42.9973,"RA_OF_ASC_NODE":76.1912,"ARG_OF_PERICENTER":270.4294,"MEAN_ANOMALY":252.5397,"EPHEMERIS_TYPE":0,"CLASSIFICATION_TYPE":"U","NORAD_CAT_ID":67996,"ELEMENT_SET_NO":999,"REV_AT_EPOCH":232,"BSTAR":-0.0036136026,"MEAN_MOTION_DOT":-0.01501621,"MEAN_MOTION_DDOT":0.00065898913},{"OBJECT_NAME":"STARLINK-36994","OBJECT_ID":"2026-039M","EPOCH":"2026-03-06T06:00:02.000160","MEAN_MOTION":15.96037119,"ECCENTRICITY":0.00015488,"INCLINATION":42.9975,"RA_OF_ASC_NODE":76.1751,"ARG_OF_PERICENTER":272.4161,"MEAN_ANOMALY":256.8586,"EPHEMERIS_TYPE":0,"CLASSIFICATION_TYPE":"U","NORAD_CAT_ID":67997,"ELEMENT_SET_NO":999,"REV_AT_EPOCH":232,"BSTAR":-0.0034876272,"MEAN_MOTION_DOT":-0.01483166,"MEAN_MOTION_DDOT":0.00064695525},{"OBJECT_NAME":"STARLINK-36988","OBJECT_ID":"2026-039N","EPOCH":"2026-03-06T06:00:02.000160","MEAN_MOTION":15.95902739,"ECCENTRICITY":0.00016272,"INCLINATION":42.9977,"RA_OF_ASC_NODE":76.1804,"ARG_OF_PERICENTER":268.5852,"MEAN_ANOMALY":258.6871,"EPHEMERIS_TYPE":0,"CLASSIFICATION_TYPE":"U","NORAD_CAT_ID":67998,"ELEMENT_SET_NO":999,"REV_AT_EPOCH":232,"BSTAR":-0.0035466653,"MEAN_MOTION_DOT":-0.01497102,"MEAN_MOTION_DDOT":0.00065726623},{"OBJECT_NAME":"STARLINK-36926","OBJECT_ID":"2026-039P","EPOCH":"2026-03-06T06:00:02.000160","MEAN_MOTION":15.96182419,"ECCENTRICITY":0.00016529,"INCLINATION":42.9976,"RA_OF_ASC_NODE":76.1702,"ARG_OF_PERICENTER":269.1381,"MEAN_ANOMALY":262.2335,"EPHEMERIS_TYPE":0,"CLASSIFICATION_TYPE":"U","NORAD_CAT_ID":67999,"ELEMENT_SET_NO":999,"REV_AT_EPOCH":232,"BSTAR":-0.0034614166,"MEAN_MOTION_DOT":-0.01483774,"MEAN_MOTION_DDOT":0.00064840397},{"OBJECT_NAME":"STARLINK-36931","OBJECT_ID":"2026-039Q","EPOCH":"2026-03-06T06:00:02.000160","MEAN_MOTION":15.96308657,"ECCENTRICITY":0.00016278,"INCLINATION":42.9977,"RA_OF_ASC_NODE":76.166,"ARG_OF_PERICENTER":269.5445,"MEAN_ANOMALY":263.4816,"EPHEMERIS_TYPE":0,"CLASSIFICATION_TYPE":"U","NORAD_CAT_ID":68000,"ELEMENT_SET_NO":999,"REV_AT_EPOCH":232,"BSTAR":-0.0034226387,"MEAN_MOTION_DOT":-0.01477397,"MEAN_MOTION_DDOT":0.00064412602},{"OBJECT_NAME":"STARLINK-36903","OBJECT_ID":"2026-039R","EPOCH":"2026-03-06T06:00:02.000160","MEAN_MOTION":15.96448984,"ECCENTRICITY":0.00015106,"INCLINATION":42.9978,"RA_OF_ASC_NODE":76.1607,"ARG_OF_PERICENTER":269.227,"MEAN_ANOMALY":265.9555,"EPHEMERIS_TYPE":0,"CLASSIFICATION_TYPE":"U","NORAD_CAT_ID":68001,"ELEMENT_SET_NO":999,"REV_AT_EPOCH":232,"BSTAR":-0.0033830761,"MEAN_MOTION_DOT":-0.01471641,"MEAN_MOTION_DDOT":0.00064044479},{"OBJECT_NAME":"STARLINK-36898","OBJECT_ID":"2026-039S","EPOCH":"2026-03-06T06:00:02.000160","MEAN_MOTION":15.96724232,"ECCENTRICITY":0.00015815,"INCLINATION":42.9977,"RA_OF_ASC_NODE":76.15,"ARG_OF_PERICENTER":269.3286,"MEAN_ANOMALY":269.9077,"EPHEMERIS_TYPE":0,"CLASSIFICATION_TYPE":"U","NORAD_CAT_ID":68002,"ELEMENT_SET_NO":999,"REV_AT_EPOCH":232,"BSTAR":-0.0033342746,"MEAN_MOTION_DOT":-0.0147253,"MEAN_MOTION_DDOT":0.00064297197}]
