STARLINK-36744          
1 67987U 26039B   26065.25002315 -.01519678  66600-3 -38876-2 0  9998
2 67987  42.9975  76.2356 0001522 269.8627 235.7357 15.94485347  2323
STARLINK-36734          
1 67988U 26039C   26065.25002315 -.01514119  66251-3 -38426-2 0  9997
2 67988  42.9976  76.2300 0001427 271.3120 236.4944 15.94633420  2321
STARLINK-36957          
1 67989U 26039D   26065.25002315 -.01512925  66250-3 -38100-2 0  9999
2 67989  42.9975  76.2251 0001540 273.9377 235.6671 15.94776658  2323
STARLINK-36951          
1 67990U 26039E   26065.25002315 -.01510073  66118-3 -37729-2 0  9992
2 67990  42.9975  76.2197 0001575 269.6056 242.1515 15.94922713  2323
STARLINK-36941          
1 67991U 26039F   26065.25002315 -.01496409  65109-3 -37119-2 0  9991
2 67991  42.9975  76.2154 0001483 269.3353 244.0389 15.95054734  2322
STARLINK-36950          
1 67992U 26039G   26065.25002315 -.01494123  65020-3 -36776-2 0  9993
2 67992  42.9976  76.2104 0001520 270.9681 244.4672 15.95198076  2320
STARLINK-36975          
1 67993U 26039H   26065.25002315 -.01487766  64603-3 -36345-2 0  9997
2 67993  42.9975  76.2054 0001522 273.4891 243.8765 15.95336222  2320
STARLINK-36993          
1 67994U 26039J   26065.25002315 -.01480647  64128-3 -35893-2 0  9998
2 67994  42.9976  76.2004 0001489 268.8759 250.6175 15.95477487  2320
STARLINK-36968          
1 67995U 26039K   26065.25002315 -.01491534  65178-3 -35624-2 0  9994
2 67995  42.9976  76.1863 0001533 273.9313 251.0122 15.95752504  2329
STARLINK-36979          
1 67996U 26039L   26065.25002315 -.01501621  65899-3 -36136-2 0  9993
2 67996  42.9973  76.1912 0001522 270.4294 252.5397 15.95615530  2327
STARLINK-36994          
1 67997U 26039M   26065.25002315 -.01483166  64696-3 -34876-2 0  9990
2 67997  42.9975  76.1751 0001548 272.4161 256.8586 15.96037119  2323
STARLINK-36988          
1 67998U 26039N   26065.25002315 -.01497102  65727-3 -35467-2 0  9999
2 67998  42.9977  76.1804 0001627 268.5852 258.6871 15.95902739  2321
STARLINK-36926          
1 67999U 26039P   26065.25002315 -.01483774  64840-3 -34614-2 0  9998
2 67999  42.9976  76.1702 0001652 269.1381 262.2335 15.96182419  2322
STARLINK-36931          
1 68000U 26039Q   26065.25002315 -.01477397  64413-3 -34226-2 0  9991
2 68000  42.9977  76.1660 0001627 269.5445 263.4816 15.96308657  2328
STARLINK-36903          
1 68001U 26039R   26065.25002315 -.01471641  64044-3 -33831-2 0  9999
2 68001  42.9978  76.1607 0001510 269.2270 265.9555 15.96448984  2320
STARLINK-36898          
1 68002U 26039S   26065.25002315 -.01472530  64297-3 -33343-2 0  9996
2 68002  42.9977  76.1500 0001581 269.3286 269.9077 15.96724232  2324
